{
  "type": "FeatureCollection",
  "features": [
    {
      "type": "Feature",
      "properties": {
        "norad_id": 34492,
        "name": "IRIDIUM 33 DEB",
        "group": "iridium-33-debris",
        "lat": 78.67276649877192,
        "lon": -11.556586957967694,
        "alt_km": 875.7545430461578,
        "timestamp": "2025-12-22T22:44:21.363621+00:00",
        "meta_object_name": "IRIDIUM 33 DEB",
        "meta_object_id": "1997-051GH",
        "meta_epoch": "2025-12-22T09:36:22.954752",
        "meta_mean_motion": 14.25888623,
        "meta_eccentricity": 0.0188716,
        "meta_inclination": 86.4712,
        "meta_ra_of_asc_node": 330.7228,
        "meta_arg_of_pericenter": 206.7682,
        "meta_mean_anomaly": 307.0999,
        "meta_ephemeris_type": 0,
        "meta_classification_type": "U",
        "meta_norad_cat_id": 34492,
        "meta_element_set_no": 999,
        "meta_rev_at_epoch": 85196,
        "meta_bstar": 0.0031446938,
        "meta_mean_motion_dot": 9.05e-05,
        "meta_mean_motion_ddot": 0,
        "tle_line1": "1 34492U 97051GH  25356.40026568  .00009050  00000+0  31447-2 0  9990",
        "tle_line2": "2 34492  86.4712 330.7228 0188716 206.7682 307.0999 14.25888623851962"
      },
      "geometry": {
        "type": "Point",
        "coordinates": [
          -11.556586957967694,
          78.67276649877192
        ]
      }
    },
    {
      "type": "Feature",
      "properties": {
        "norad_id": 34497,
        "name": "IRIDIUM 33 DEB",
        "group": "iridium-33-debris",
        "lat": 20.557861286415907,
        "lon": 49.44013397232129,
        "alt_km": 784.7813446414084,
        "timestamp": "2025-12-22T22:44:21.363632+00:00",
        "meta_object_name": "IRIDIUM 33 DEB",
        "meta_object_id": "1997-051GN",
        "meta_epoch": "2025-12-21T03:02:18.965760",
        "meta_mean_motion": 14.27475874,
        "meta_eccentricity": 0.00780469,
        "meta_inclination": 86.2771,
        "meta_ra_of_asc_node": 48.8187,
        "meta_arg_of_pericenter": 312.1215,
        "meta_mean_anomaly": 76.3389,
        "meta_ephemeris_type": 0,
        "meta_classification_type": "U",
        "meta_norad_cat_id": 34497,
        "meta_element_set_no": 999,
        "meta_rev_at_epoch": 87003,
        "meta_bstar": 0.00042941712,
        "meta_mean_motion_dot": 1.107e-05,
        "meta_mean_motion_ddot": 0,
        "tle_line1": "1 34497U 97051GN  25355.12660840  .00001107  00000+0  42942-3 0  9998",
        "tle_line2": "2 34497  86.2771  48.8187 0078046 312.1215  76.3389 14.27475874870039"
      },
      "geometry": {
        "type": "Point",
        "coordinates": [
          49.44013397232129,
          20.557861286415907
        ]
      }
    },
    {
      "type": "Feature",
      "properties": {
        "norad_id": 34508,
        "name": "IRIDIUM 33 DEB",
        "group": "iridium-33-debris",
        "lat": -42.16094464286888,
        "lon": -78.38929280862912,
        "alt_km": 763.2208590860073,
        "timestamp": "2025-12-22T22:44:21.363642+00:00",
        "meta_object_name": "IRIDIUM 33 DEB",
        "meta_object_id": "1997-051GZ",
        "meta_epoch": "2025-12-22T06:41:24.031968",
        "meta_mean_motion": 14.38495257,
        "meta_eccentricity": 0.00666176,
        "meta_inclination": 86.3708,
        "meta_ra_of_asc_node": 98.5996,
        "meta_arg_of_pericenter": 142.363,
        "meta_mean_anomaly": 218.2258,
        "meta_ephemeris_type": 0,
        "meta_classification_type": "U",
        "meta_norad_cat_id": 34508,
        "meta_element_set_no": 999,
        "meta_rev_at_epoch": 87446,
        "meta_bstar": 0.0011650926,
        "meta_mean_motion_dot": 3.671e-05,
        "meta_mean_motion_ddot": 0,
        "tle_line1": "1 34508U 97051GZ  25356.27875037  .00003671  00000+0  11651-2 0  9994",
        "tle_line2": "2 34508  86.3708  98.5996 0066617 142.3630 218.2258 14.38495257874460"
      },
      "geometry": {
        "type": "Point",
        "coordinates": [
          -78.38929280862912,
          -42.16094464286888
        ]
      }
    },
    {
      "type": "Feature",
      "properties": {
        "norad_id": 34521,
        "name": "IRIDIUM 33 DEB",
        "group": "iridium-33-debris",
        "lat": -54.346483974073244,
        "lon": -148.88169449751845,
        "alt_km": 688.2416733174823,
        "timestamp": "2025-12-22T22:44:21.363652+00:00",
        "meta_object_name": "IRIDIUM 33 DEB",
        "meta_object_id": "1997-051HN",
        "meta_epoch": "2025-12-22T11:49:30.487008",
        "meta_mean_motion": 14.63442737,
        "meta_eccentricity": 0.00027328,
        "meta_inclination": 86.3786,
        "meta_ra_of_asc_node": 26.2535,
        "meta_arg_of_pericenter": 175.2119,
        "meta_mean_anomaly": 184.912,
        "meta_ephemeris_type": 0,
        "meta_classification_type": "U",
        "meta_norad_cat_id": 34521,
        "meta_element_set_no": 999,
        "meta_rev_at_epoch": 88615,
        "meta_bstar": 0.00082546651,
        "meta_mean_motion_dot": 4.292e-05,
        "meta_mean_motion_ddot": 0,
        "tle_line1": "1 34521U 97051HN  25356.49271397  .00004292  00000+0  82547-3 0  9995",
        "tle_line2": "2 34521  86.3786  26.2535 0002732 175.2119 184.9120 14.63442737886152"
      },
      "geometry": {
        "type": "Point",
        "coordinates": [
          -148.88169449751845,
          -54.346483974073244
        ]
      }
    },
    {
      "type": "Feature",
      "properties": {
        "norad_id": 34525,
        "name": "IRIDIUM 33 DEB",
        "group": "iridium-33-debris",
        "lat": 21.357156014560893,
        "lon": 43.90824368775437,
        "alt_km": 745.8214867933739,
        "timestamp": "2025-12-22T22:44:21.363662+00:00",
        "meta_object_name": "IRIDIUM 33 DEB",
        "meta_object_id": "1997-051HS",
        "meta_epoch": "2025-12-22T09:23:58.915968",
        "meta_mean_motion": 14.42927542,
        "meta_eccentricity": 0.00063657,
        "meta_inclination": 86.3719,
        "meta_ra_of_asc_node": 42.7238,
        "meta_arg_of_pericenter": 72.8849,
        "meta_mean_anomaly": 303.3135,
        "meta_ephemeris_type": 0,
        "meta_classification_type": "U",
        "meta_norad_cat_id": 34525,
        "meta_element_set_no": 999,
        "meta_rev_at_epoch": 88227,
        "meta_bstar": 0.00031969336,
        "meta_mean_motion_dot": 1.088e-05,
        "meta_mean_motion_ddot": 0,
        "tle_line1": "1 34525U 97051HS  25356.39165412  .00001088  00000+0  31969-3 0  9990",
        "tle_line2": "2 34525  86.3719  42.7238 0006365  72.8849 303.3135 14.42927542882274"
      },
      "geometry": {
        "type": "Point",
        "coordinates": [
          43.90824368775437,
          21.357156014560893
        ]
      }
    },
    {
      "type": "Feature",
      "properties": {
        "norad_id": 34529,
        "name": "IRIDIUM 33 DEB",
        "group": "iridium-33-debris",
        "lat": -12.188445377915038,
        "lon": -148.15281039637154,
        "alt_km": 757.950401547042,
        "timestamp": "2025-12-22T22:44:21.363672+00:00",
        "meta_object_name": "IRIDIUM 33 DEB",
        "meta_object_id": "1997-051HW",
        "meta_epoch": "2025-12-22T11:50:55.230720",
        "meta_mean_motion": 14.4062334,
        "meta_eccentricity": 0.00059058,
        "meta_inclination": 86.3633,
        "meta_ra_of_asc_node": 31.2535,
        "meta_arg_of_pericenter": 148.7666,
        "meta_mean_anomaly": 211.3885,
        "meta_ephemeris_type": 0,
        "meta_classification_type": "U",
        "meta_norad_cat_id": 34529,
        "meta_element_set_no": 999,
        "meta_rev_at_epoch": 88282,
        "meta_bstar": 0.00011217968,
        "meta_mean_motion_dot": 3.78e-06,
        "meta_mean_motion_ddot": 0,
        "tle_line1": "1 34529U 97051HW  25356.49369480  .00000378  00000+0  11218-3 0  9992",
        "tle_line2": "2 34529  86.3633  31.2535 0005905 148.7666 211.3885 14.40623340882823"
      },
      "geometry": {
        "type": "Point",
        "coordinates": [
          -148.15281039637154,
          -12.188445377915038
        ]
      }
    },
    {
      "type": "Feature",
      "properties": {
        "norad_id": 34538,
        "name": "IRIDIUM 33 DEB",
        "group": "iridium-33-debris",
        "lat": 74.80598184738199,
        "lon": 167.20913375456962,
        "alt_km": 765.1585847449314,
        "timestamp": "2025-12-22T22:44:21.363683+00:00",
        "meta_object_name": "IRIDIUM 33 DEB",
        "meta_object_id": "1997-051JF",
        "meta_epoch": "2025-12-22T06:12:04.821696",
        "meta_mean_motion": 14.42700609,
        "meta_eccentricity": 0.00320413,
        "meta_inclination": 86.2762,
        "meta_ra_of_asc_node": 1.3859,
        "meta_arg_of_pericenter": 295.0641,
        "meta_mean_anomaly": 192.9769,
        "meta_ephemeris_type": 0,
        "meta_classification_type": "U",
        "meta_norad_cat_id": 34538,
        "meta_element_set_no": 999,
        "meta_rev_at_epoch": 87893,
        "meta_bstar": 0.00089518329,
        "meta_mean_motion_dot": 3.015e-05,
        "meta_mean_motion_ddot": 0,
        "tle_line1": "1 34538U 97051JF  25356.25838914  .00003015  00000+0  89518-3 0  9998",
        "tle_line2": "2 34538  86.2762   1.3859 0032041 295.0641 192.9769 14.42700609878930"
      },
      "geometry": {
        "type": "Point",
        "coordinates": [
          167.20913375456962,
          74.80598184738199
        ]
      }
    }
  ]
}